{"version": 0.6, "generator": "Overpass API 0.7.62.8 e802775f", "osm3s": {"timestamp_osm_base": "2025-09-06T21:33:58Z", "copyright": "The data included in this document is from www.openstreetmap.org. The data is made available under ODbL."}, "elements": [{"type": "node", "id": 338172136, "lat": 6.1842195, "lon": -75.57863, "tags": {"addr:city": "Medellin", "addr:country": "CO", "amenity": "pharmacy", "name": "Farmacia Pasteur", "opening_hours": "24/7"}}, {"type": "node", "id": 565485153, "lat": 6.244369, "lon": -75.6065224, "tags": {"amenity": "pharmacy", "healthcare": "pharmacy", "name": "Drogueria PromoSalud", "phone": "+57 3053398296", "survey:date": "2022-07-04"}}, {"type": "node", "id": 1023455530, "lat": 6.2007344, "lon": -75.5730246, "tags": {"amenity": "pharmacy", "check_date": "2023-10-16", "dispensing": "yes", "healthcare": "pharmacy", "name": "Farmacia Pasteur", "operator": "Pasteur"}}, {"type": "node", "id": 1180065929, "lat": 6.2144525, "lon": -75.6016691, "tags": {"name": "Droger\u00eda El Tesoro", "opening_hours": "Mo-Su 07:00-20:00", "shop": "chemist"}}, {"type": "node", "id": 1180065982, "lat": 6.2132861, "lon": -75.6019436, "tags": {"name": "Droger\u00eda La Nobleza", "opening_hours": "Mo-Su 07:00-22:00", "shop": "chemist"}}, {"type": "node", "id": 1180066052, "lat": 6.2135428, "lon": -75.6018935, "tags": {"name": "Droguer\u00eda San Bartolome", "opening_hours": "Mo-Su 07:00-22:00", "shop": "chemist"}}, {"type": "node", "id": 1190038782, "lat": 6.2491887, "lon": -75.60215, "tags": {"amenity": "pharmacy", "dispensing": "yes", "healthcare": "pharmacy", "name": "Droguer\u00eda Dar Salud la 81", "opening_hours": "Mo-Su 07:00-20:00"}}, {"type": "node", "id": 1190038854, "lat": 6.2497376, "lon": -75.5916503, "tags": {"amenity": "pharmacy", "dispensing": "yes", "healthcare": "pharmacy", "name": "Botica Junin", "opening_hours": "Mo-Su 07:00-20:00"}}, {"type": "node", "id": 1190038879, "lat": 6.2543881, "lon": -75.5831606, "tags": {"amenity": "pharmacy", "dispensing": "yes", "healthcare": "pharmacy", "name": "Drogas Super \u00c9xito", "opening_hours": "Mo-Su 07:00-20:00"}}, {"type": "node", "id": 1190038895, "lat": 6.2298812, "lon": -75.5959421, "tags": {"amenity": "pharmacy", "dispensing": "yes", "name": "Droguer\u00eda Farma", "opening_hours": "Mo-Su 07:00-20:00"}}, {"type": "node", "id": 1190039010, "lat": 6.2317447, "lon": -75.5915988, "tags": {"amenity": "pharmacy", "dispensing": "yes", "drive_through": "no", "healthcare": "pharmacy", "name": "Drogruer\u00eda La Garant\u00eda", "opening_hours": "24/7"}}, {"type": "node", "id": 1190039026, "lat": 6.2499097, "lon": -75.5965127, "tags": {"amenity": "pharmacy", "dispensing": "yes", "healthcare": "pharmacy", "name": "Farmacia Jos\u00e9 Celestino Mutis, natulista", "opening_hours": "Mo-Su 07:00-20:00"}}, {"type": "node", "id": 1190039066, "lat": 6.2246821, "lon": -75.599662, "tags": {"amenity": "pharmacy", "dispensing": "yes", "name": "Droguer\u00eda Junta", "opening_hours": "Mo-Su 07:00-20:00"}}, {"type": "node", "id": 1190039135, "lat": 6.2246392, "lon": -75.5971685, "tags": {"amenity": "pharmacy", "dispensing": "yes", "name": "Droguer\u00eda Dromar", "opening_hours": "Mo-Su 07:00-20:00"}}, {"type": "node", "id": 1190039344, "lat": 6.2256157, "lon": -75.5999783, "tags": {"amenity": "pharmacy", "dispensing": "yes", "name": "Droguer\u00eda Jesua", "opening_hours": "Mo-Fr 08:30-20:00"}}, {"type": "node", "id": 1190039355, "lat": 6.2312791, "lon": -75.5961093, "tags": {"amenity": "pharmacy", "building": "yes", "dispensing": "yes", "healthcare": "pharmacy", "name": "Droguer\u00eda Caribe la 76", "opening_hours": "Mo-Su 07:00-20:00"}}, {"type": "node", "id": 1190039359, "lat": 6.2346546, "lon": -75.6020626, "tags": {"amenity": "pharmacy", "dispensing": "yes", "healthcare": "pharmacy", "name": "Droguer\u00eda Villa de Aburr\u00e1", "opening_hours": "Mo-Su 07:00-20:00"}}, {"type": "node", "id": 1190039365, "lat": 6.2272662, "lon": -75.6016512, "tags": {"amenity": "pharmacy", "dispensing": "yes", "name": "Droguer\u00eda la 80 con la 25", "opening_hours": "Mo-Su 07:00-20:00"}}, {"type": "node", "id": 1190039390, "lat": 6.2253107, "lon": -75.5969243, "tags": {"amenity": "pharmacy", "dispensing": "yes", "name": "Droguer\u00eda Bel\u00e9n 2", "opening_hours": "Mo-Su 07:00-20:00"}}, {"type": "node", "id": 1190191251, "lat": 6.2469865, "lon": -75.5686449, "tags": {"amenity": "pharmacy", "dispensing": "yes", "name": "Farmacia Pasteur", "opening_hours": "Mo-Su 07:00-20:00", "wheelchair": "yes"}}, {"type": "node", "id": 1192169167, "lat": 6.2143036, "lon": -75.5970436, "tags": {"amenity": "pharmacy", "dispensing": "yes", "healthcare": "pharmacy", "name": "Botica Jun\u00edn", "opening_hours": "Mo-Su 07:00-20:00"}}, {"type": "node", "id": 1197785392, "lat": 6.2392038, "lon": -75.5928064, "tags": {"amenity": "pharmacy", "dispensing": "yes", "healthcare": "pharmacy", "name": "Droguer\u00eda Colsubsidio", "opening_hours": "Mo-Sa 10:00-18:00"}}, {"type": "node", "id": 1942809315, "lat": 6.2776153, "lon": -75.560866, "tags": {"amenity": "pharmacy"}}, {"type": "node", "id": 1998216733, "lat": 6.2256982, "lon": -75.6015366, "tags": {"amenity": "pharmacy", "name": "Famacia Zuluar"}}, {"type": "node", "id": 2287608470, "lat": 6.1863772, "lon": -75.5622511, "tags": {"amenity": "pharmacy"}}, {"type": "node", "id": 2378625355, "lat": 6.2267557, "lon": -75.5438287}, {"type": "node", "id": 2466029065, "lat": 6.2780486, "lon": -75.6354997}, {"type": "node", "id": 2466029066, "lat": 6.277974, "lon": -75.6354957}, {"type": "node", "id": 2466029067, "lat": 6.2779793, "lon": -75.6353897}, {"type": "node", "id": 2466029068, "lat": 6.2780473, "lon": -75.6353964}, {"type": "node", "id": 2797552043, "lat": 6.2856047, "lon": -75.5781883}, {"type": "node", "id": 2797552044, "lat": 6.2856251, "lon": -75.5781178}, {"type": "node", "id": 2797552045, "lat": 6.2856883, "lon": -75.5782247}, {"type": "node", "id": 2797552046, "lat": 6.2857064, "lon": -75.5781587}, {"type": "node", "id": 3513463761, "lat": 6.2331835, "lon": -75.6290208}, {"type": "node", "id": 3513463762, "lat": 6.2331417, "lon": -75.6290068}, {"type": "node", "id": 3513463763, "lat": 6.2331603, "lon": -75.6289391}, {"type": "node", "id": 3513463764, "lat": 6.2332044, "lon": -75.6289531}, {"type": "node", "id": 3515984967, "lat": 6.2560393, "lon": -75.6255979}, {"type": "node", "id": 3515984968, "lat": 6.2559686, "lon": -75.6256365}, {"type": "node", "id": 3515984969, "lat": 6.2559181, "lon": -75.6255592}, {"type": "node", "id": 3515984970, "lat": 6.2559888, "lon": -75.6255227}, {"type": "node", "id": 3652004143, "lat": 6.2562653, "lon": -75.5998849, "tags": {"amenity": "pharmacy", "dispensing": "yes", "name": "Droguer\u00eda La Floresta", "opening_hours": "Mo-Fr 08:30-20:00; Sa,Su 08:00-15:00; PH off"}}, {"type": "node", "id": 3839635351, "lat": 6.2595222, "lon": -75.6094015, "tags": {"amenity": "pharmacy", "name": "Farmacia San Gregorio"}}, {"type": "node", "id": 3839635352, "lat": 6.2607582, "lon": -75.6088257, "tags": {"amenity": "pharmacy", "name": "Farmacia San Jeronimo"}}, {"type": "node", "id": 4177165732, "lat": 6.2918487, "lon": -75.5440351, "tags": {"addr:housenumber": "102 112", "addr:street": "Carrera34", "name": "102", "shop": "chemist"}}, {"type": "node", "id": 4273972401, "lat": 6.3017443, "lon": -75.5731558}, {"type": "node", "id": 4273972405, "lat": 6.3017622, "lon": -75.5731879}, {"type": "node", "id": 4273972408, "lat": 6.301771, "lon": -75.5731407}, {"type": "node", "id": 4273972411, "lat": 6.3017889, "lon": -75.5731729}, {"type": "node", "id": 4319075791, "lat": 6.2090114, "lon": -75.5709459, "tags": {"addr:street": "Carrera 43A", "amenity": "pharmacy", "check_date": "2023-10-17", "name": "Pasteur", "opening_hours": "24/7", "operator": "Farmacias Pasteur S.A"}}, {"type": "node", "id": 4319100789, "lat": 6.2098991, "lon": -75.5705545, "tags": {"addr:street": "Carrera 43 A", "amenity": "pharmacy", "name": "Droguer\u00eda El Poblado", "opening_hours": "Mo-Su 10:00-20:00", "operator": "Farmacias Pasteur S.A.", "toilets:wheelchair": "no", "wheelchair": "no"}}, {"type": "node", "id": 4449599392, "lat": 6.1761446, "lon": -75.6506895, "tags": {"amenity": "pharmacy", "name": "Barichara", "name:es": "Barichara"}}, {"type": "node", "id": 4457910074, "lat": 6.212652, "lon": -75.5760871, "tags": {"amenity": "pharmacy", "name": "Pasteur", "opening_hours": "Mo-Sa 07:30-20:00; Su, PH 10:00-18:00"}}, {"type": "node", "id": 4492782639, "lat": 6.1998211, "lon": -75.5722128, "tags": {"amenity": "pharmacy", "dispensing": "no", "name": "Pasteur"}}, {"type": "node", "id": 4590243894, "lat": 6.2695916, "lon": -75.5564614, "tags": {"addr:housenumber": "76-02", "addr:street": "Carrera 48A", "amenity": "pharmacy", "name": "Drogueria Cosmos", "name:es": "Drogueria Cosmos", "opening_hours": "Mo-Sa 09:00-14:00, 15:00-21:00", "phone": "+57 4 2635613"}}, {"type": "node", "id": 4606449666, "lat": 6.2351257, "lon": -75.5487633, "tags": {"name": "Droguer\u00eda Buenos Aires", "opening_hours": "10:00-23:00", "shop": "chemist"}}, {"type": "node", "id": 4607222702, "lat": 6.1840242, "lon": -75.6559023, "tags": {"amenity": "pharmacy", "name": "Pasteur"}}, {"type": "node", "id": 4614348594, "lat": 6.2554749, "lon": -75.5823864, "tags": {"addr:housenumber": "65A-51", "addr:street": "Calle 49A", "amenity": "pharmacy", "name": "Vida Sana", "name:en": "Vida Sana", "name:es": "Vida Sana", "opening_hours": "Mo-Sa 08:00-12:00, 13:00-17:00", "phone": "+57 4 4488630"}}, {"type": "node", "id": 4659798489, "lat": 6.2813102, "lon": -75.6069088, "tags": {"addr:street": "Calle 64", "amenity": "pharmacy", "name:es": "Farmacia"}}, {"type": "node", "id": 4738918221, "lat": 6.252002, "lon": -75.5649196, "tags": {"addr:street": "Calle 54;Caracas", "amenity": "pharmacy", "name": "Drogas C\u00e1lidad", "name:es": "Drogas C\u00e1lidad"}}, {"type": "node", "id": 4949215521, "lat": 6.2501804, "lon": -75.6214847, "tags": {"amenity": "pharmacy"}}, {"type": "node", "id": 4949991321, "lat": 6.2518082, "lon": -75.6219948, "tags": {"amenity": "pharmacy"}}, {"type": "node", "id": 4950119024, "lat": 6.2505275, "lon": -75.6033773, "tags": {"addr:city": "Medell\u00edn", "amenity": "pharmacy", "healthcare": "pharmacy"}}, {"type": "node", "id": 4951675824, "lat": 6.2616812, "lon": -75.5972289, "tags": {"amenity": "pharmacy", "name": "Droguer\u00eda Botica Jun\u00edn"}}, {"type": "node", "id": 4951843743, "lat": 6.2566145, "lon": -75.6031542, "tags": {"addr:street": "Carrera 87", "amenity": "pharmacy", "name": "Drogueria", "source": "Kaart Ground Survey 2018"}}, {"type": "node", "id": 4951843748, "lat": 6.247158, "lon": -75.5983699, "tags": {"addr:street": "Transversal 39", "amenity": "pharmacy", "name": "Drogas FarmaM\u00e9dicas", "source": "Kaart Ground Survey 2018"}}, {"type": "node", "id": 4951844627, "lat": 6.2108311, "lon": -75.5708522, "tags": {"addr:street": "Calle 10", "amenity": "pharmacy", "name": "Drogas La Economia", "source": "Kaart Ground Survey 2018"}}, {"type": "node", "id": 4951844636, "lat": 6.2101603, "lon": -75.5692021, "tags": {"amenity": "pharmacy"}}, {"type": "node", "id": 4951844651, "lat": 6.2537776, "lon": -75.6032045, "tags": {"amenity": "pharmacy", "name": "D1 Farma", "name:es": "D1 Farma"}}, {"type": "node", "id": 4951844661, "lat": 6.2576252, "lon": -75.603672, "tags": {"amenity": "pharmacy"}}, {"type": "node", "id": 4951844722, "lat": 6.209374, "lon": -75.567551, "tags": {"amenity": "pharmacy", "healthcare": "pharmacy", "name": "Pasteur"}}, {"type": "node", "id": 5054180405, "lat": 6.2328807, "lon": -75.5967012, "tags": {"amenity": "pharmacy", "building": "yes", "drive_through": "no", "healthcare": "pharmacy", "name": "Droguer\u00eda Alemana", "source": "note 818943"}}, {"type": "node", "id": 5227038825, "lat": 6.225219, "lon": -75.5985927, "tags": {"amenity": "pharmacy", "healthcare": "pharmacy", "name": "Droguer\u00eda Bel\u00e9n No. 3"}}, {"type": "node", "id": 5249839582, "lat": 6.2702686, "lon": -75.5363906, "tags": {"addr:street": "Carrera 24", "amenity": "pharmacy", "healthcare": "pharmacy", "name": "Punto de Salud"}}, {"type": "node", "id": 5249839647, "lat": 6.2715977, "lon": -75.5376808, "tags": {"addr:street": "Carrera 24", "amenity": "pharmacy", "healthcare": "pharmacy", "name": "Farmacia Central"}}, {"type": "node", "id": 5299660784, "lat": 6.1852689, "lon": -75.655937, "tags": {"shop": "chemist"}}, {"type": "node", "id": 5299660785, "lat": 6.1849988, "lon": -75.6564998, "tags": {"amenity": "pharmacy", "healthcare": "pharmacy", "name": "La polar"}}, {"type": "node", "id": 5322611023, "lat": 6.2492579, "lon": -75.6110031, "tags": {"amenity": "pharmacy", "healthcare": "pharmacy"}}, {"type": "node", "id": 5333558427, "lat": 6.1848329, "lon": -75.6577188, "tags": {"amenity": "pharmacy", "healthcare": "pharmacy", "name": "La enfermera"}}, {"type": "node", "id": 5427016321, "lat": 6.2633475, "lon": -75.5421933, "tags": {"addr:postcode": "27-27", "name": "DROGUERIA UVAPAR", "shop": "chemist"}}, {"type": "node", "id": 5427474722, "lat": 6.2559345, "lon": -75.5822646, "tags": {"amenity": "pharmacy", "healthcare": "pharmacy", "name": "La rebaja plus"}}, {"type": "node", "id": 5449543440, "lat": 6.2659937, "lon": -75.5446566, "tags": {"addr:street": "Carrera 31A #71-59", "amenity": "pharmacy", "dispensing": "yes", "healthcare": "pharmacy"}}, {"type": "node", "id": 5452667822, "lat": 6.2549316, "lon": -75.5797323, "tags": {"amenity": "pharmacy", "name": "Pasteur"}}, {"type": "node", "id": 5452667824, "lat": 6.2557254, "lon": -75.5817885, "tags": {"amenity": "pharmacy", "healthcare": "pharmacy", "name": "Droguer\u00eda Torrenza", "opening_hours": "Mo-Sa 08:00-08:00"}}, {"type": "node", "id": 5460480339, "lat": 6.2635057, "lon": -75.5436766, "tags": {"addr:city": "Comuna 3 - Manrique", "addr:housenumber": "30-40", "addr:street": "Calle 69", "shop": "chemist"}}, {"type": "node", "id": 5481256317, "lat": 6.3011729, "lon": -75.5566531, "tags": {"addr:street": "Carrera 52", "amenity": "pharmacy", "building": "yes", "dispensing": "yes", "healthcare": "pharmacy", "name": "Drogueria Estaci\u00f3n Acevedo", "source": "Kaart Ground Survey 2018"}}, {"type": "node", "id": 5482805566, "lat": 6.2993214, "lon": -75.5569938, "tags": {"addr:street": "Calle 107", "amenity": "pharmacy", "building": "yes", "healthcare": "pharmacy", "name": "Drogueriai Azucena", "phone": "+57 4 2367169", "source": "Kaart Ground Survey 2018"}}, {"type": "node", "id": 5483381957, "lat": 6.2914686, "lon": -75.5583067, "tags": {"addr:street": "Calle 99", "amenity": "pharmacy", "building": "yes", "name": "Droguer\u00eda Maxi Salud", "source": "Kaart Ground Survey 2018"}}, {"type": "node", "id": 5488922942, "lat": 6.2892117, "lon": -75.5453825, "tags": {"addr:street": "Carrera 35A", "amenity": "pharmacy", "name": "Droguer\u00eda Provital", "source": "Kaart Ground Survey 2018"}}, {"type": "node", "id": 5489599800, "lat": 6.2716541, "lon": -75.5584079, "tags": {"addr:street": "Carrera 49", "amenity": "pharmacy", "building": "yes", "healthcare": "pharmacy", "name": "Droguer\u00eda Nueva Vida", "opening_hours": "Mo-Sa 08:00-18:00", "source": "Kaart Ground Survey 2018"}}, {"type": "node", "id": 5491551326, "lat": 6.2641674, "lon": -75.5643927, "tags": {"addr:street": "Calle 67", "amenity": "pharmacy", "name": "Droguer\u00eda Yamille", "source": "Kaart Ground Survey 2018"}}, {"type": "node", "id": 5492213553, "lat": 6.264526, "lon": -75.5480888, "tags": {"addr:street": "Carrera 36A", "amenity": "pharmacy", "building": "yes", "name": "Droguer\u00eda Parque Gaitan", "source": "Kaart Ground Survey 2018"}}, {"type": "node", "id": 5492541643, "lat": 6.2265741, "lon": -75.5852851, "tags": {"addr:street": "Calle 25", "amenity": "pharmacy", "name": "Dogueria Droxi", "source": "Kaart Ground Survey 2018"}}, {"type": "node", "id": 5492541650, "lat": 6.2263961, "lon": -75.5855258, "tags": {"addr:street": "Calle 25", "amenity": "pharmacy", "name": "Dogueria la Ahorradora", "source": "Kaart Ground Survey 2018"}}, {"type": "node", "id": 5492577599, "lat": 6.2267121, "lon": -75.5832097, "tags": {"addr:street": "Calle 25", "amenity": "pharmacy", "name": "Drogueria Fundaderes", "source": "Kaart Ground Survey 2018"}}, {"type": "node", "id": 5493973416, "lat": 6.2687159, "lon": -75.5547152, "tags": {"addr:street": "Carrera 44A", "amenity": "pharmacy", "name": "Metro Farma La 45", "phone": "+57 4 3224098", "source": "Kaart Ground Survey 2018"}}, {"type": "node", "id": 5494073080, "lat": 6.2656245, "lon": -75.5464232, "tags": {"addr:street": "Carrera 34", "amenity": "pharmacy", "building": "yes", "name": "Droguer\u00eda Hidalgo", "phone": "+57 4 2843330", "source": "Kaart Ground Survey 2018"}}, {"type": "node", "id": 5494163812, "lat": 6.2636489, "lon": -75.5485703, "tags": {"addr:housenumber": "68-78", "addr:street": "Carrera 37", "amenity": "pharmacy", "building": "yes", "name": "Droguer\u00eda Pentel", "phone": "+57 4 5715106", "source": "Kaart Ground Survey 2018"}}, {"type": "node", "id": 5494758741, "lat": 6.2572446, "lon": -75.5615884, "tags": {"addr:street": "Calle 61", "amenity": "pharmacy", "building": "yes", "name": "Droguer\u00eda Albania", "source": "Kaart Ground Survey 2018"}}, {"type": "node", "id": 5497069515, "lat": 6.2469222, "lon": -75.5649988, "tags": {"addr:street": "Carrera 45", "amenity": "pharmacy", "building": "yes", "name": "Farmaster", "opening_hours": "Mo-Sa 00:00-23:59; Su 00:00-23:58", "phone": "+57 604 3220232", "source": "Kaart Ground Survey 2018", "survey:date": "2022-03-10", "wheelchair": "yes"}}, {"type": "node", "id": 5497653683, "lat": 6.2738208, "lon": -75.5956233}, {"type": "node", "id": 5497653684, "lat": 6.2738329, "lon": -75.5956618}, {"type": "node", "id": 5497653685, "lat": 6.2739272, "lon": -75.5957045}, {"type": "node", "id": 5497653686, "lat": 6.273839, "lon": -75.5955827}, {"type": "node", "id": 5497653687, "lat": 6.2739576, "lon": -75.5956364}, {"type": "node", "id": 5509498429, "lat": 6.2457424, "lon": -75.6207673, "tags": {"addr:street": "Carrera 105B", "amenity": "pharmacy", "name": "Droguer\u00eda Sosalud", "source": "Kaart Ground Survey 2018"}}, {"type": "node", "id": 5509498446, "lat": 6.2556489, "lon": -75.6030057, "tags": {"addr:street": "Carrera 87", "amenity": "pharmacy", "name": "Drogas el Huequito", "source": "Kaart Ground Survey 2018"}}, {"type": "node", "id": 5509498471, "lat": 6.2510016, "lon": -75.60386, "tags": {"addr:street": "Carrera 82", "amenity": "pharmacy", "name": "Surtifarmax", "source": "Kaart Ground Survey 2018"}}, {"type": "node", "id": 5512558079, "lat": 6.2576152, "lon": -75.605181, "tags": {"addr:street": "Carrera 89", "amenity": "pharmacy", "name": "Droguer\u00eda", "source": "Kaart Ground Survey 2018"}}, {"type": "node", "id": 5512558126, "lat": 6.2600215, "lon": -75.6046593, "tags": {"addr:housenumber": "Droguer\u00eda Metropolitana NK", "addr:street": "Carrera 87", "amenity": "pharmacy", "source": "Kaart Ground Survey 2018"}}, {"type": "node", "id": 5512558250, "lat": 6.2583164, "lon": -75.6141342, "tags": {"addr:street": "Carrera 99", "amenity": "pharmacy", "name": "Droguer\u00eda Metro Avenida", "source": "Kaart Ground Survey 2018"}}, {"type": "node", "id": 5512682539, "lat": 6.2002135, "lon": -75.5905589, "tags": {"addr:street": "Carrera 53", "amenity": "pharmacy", "name": "La Relief Drogueria", "source": "Kaart Ground Survey 2018"}}, {"type": "node", "id": 5512785272, "lat": 6.2385127, "lon": -75.6035663, "tags": {"addr:street": "Calle 33", "amenity": "pharmacy", "name": "Droguer\u00eda La Promocion", "source": "Kaart Ground Survey 2018"}}, {"type": "node", "id": 5512785314, "lat": 6.2487233, "lon": -75.6052454, "tags": {"addr:street": "Carrera 84", "amenity": "pharmacy", "healthcare": "pharmacy", "name": "Droguer\u00eda La 84", "source": "Kaart Ground Survey 2018"}}, {"type": "node", "id": 5512785338, "lat": 6.2444892, "lon": -75.6076551}, {"type": "node", "id": 5512785339, "lat": 6.2445425, "lon": -75.6075143}, {"type": "node", "id": 5512785340, "lat": 6.2444346, "lon": -75.607473}, {"type": "node", "id": 5512785341, "lat": 6.2443812, "lon": -75.6076138}, {"type": "node", "id": 5512849108, "lat": 6.1953704, "lon": -75.5911531, "tags": {"addr:street": "Calle 13A Sur", "amenity": "pharmacy", "name": "Droger\u00eda Farmasur Medell\u00edn", "source": "Kaart Ground Survey 2018"}}, {"type": "node", "id": 5529490207, "lat": 6.2386574, "lon": -75.6004174}, {"type": "node", "id": 5529490208, "lat": 6.2384135, "lon": -75.600412}, {"type": "node", "id": 5529490209, "lat": 6.2384154, "lon": -75.6003249}, {"type": "node", "id": 5529490210, "lat": 6.2386593, "lon": -75.6003302}, {"type": "node", "id": 5529655287, "lat": 6.2342732, "lon": -75.6023821, "tags": {"addr:street": "Calle 32", "amenity": "pharmacy", "healthcare": "pharmacy", "name": "Droguer\u00eda Alemana", "source": "Kaart Ground Survey 2018"}}, {"type": "node", "id": 5532355811, "lat": 6.2095749, "lon": -75.5675107, "tags": {"addr:street": "Calle 10", "amenity": "pharmacy", "name": "Droguer\u00eda Alemana", "source": "Kaart Ground Survey 2018"}}, {"type": "node", "id": 5532355921, "lat": 6.2102535, "lon": -75.5692294, "tags": {"addr:street": "Calle 10", "amenity": "pharmacy", "name": "Farma Fast", "source": "Kaart Ground Survey 2018"}}, {"type": "node", "id": 5532355952, "lat": 6.2118927, "lon": -75.5735061, "tags": {"addr:street": "Calle 10", "amenity": "pharmacy", "check_date": "2023-10-18", "name": "MundoFarma", "source": "Kaart Ground Survey 2018"}}, {"type": "node", "id": 5544053398, "lat": 6.2919511, "lon": -75.5826592, "tags": {"addr:street": "Carrera 79", "amenity": "pharmacy", "name": "Droguer\u00eda Prosperidad", "source": "Kaart Ground Survey 2018"}}, {"type": "node", "id": 5544207936, "lat": 6.299448, "lon": -75.5750028, "tags": {"addr:street": "Carrera 74", "amenity": "pharmacy", "name": "Droguer\u00eda Famidrogas M.R.", "source": "Kaart Ground Survey 2018"}}, {"type": "node", "id": 5544207941, "lat": 6.2983096, "lon": -75.5756559, "tags": {"addr:street": "Carrera 74", "amenity": "pharmacy", "name": "Droguer\u00eda Las \u00c1ngeles", "source": "Kaart Ground Survey 2018"}}, {"type": "node", "id": 5544207958, "lat": 6.2957442, "lon": -75.5775952, "tags": {"addr:street": "Calle 98", "amenity": "pharmacy", "name": "Universo Droguer\u00eda", "source": "Kaart Ground Survey 2018"}}, {"type": "node", "id": 5544207970, "lat": 6.2976184, "lon": -75.5790824, "tags": {"addr:street": "Calle 98D", "amenity": "pharmacy", "name": "Droguer\u00eda La 76", "source": "Kaart Ground Survey 2018"}}, {"type": "node", "id": 5545675236, "lat": 6.264158, "lon": -75.5423415, "tags": {"addr:city": "Comuna 3 - Manrique", "addr:housenumber": "numero 28 30", "addr:street": "Calle 70", "amenity": "pharmacy", "description": "venden medicamento ( ibuprofeno, acetaminofen, acetaminofen en jarabe, buscapina, calmidol,mareol) tienen estanterias para colocar los medicamentos", "drive_through": "no", "healthcare": "pharmacy", "name": "Tienda Maria Hoyos", "opening_hours": "7:00 am 8:00 pm", "operator": "maria hoyos", "payment:cash": "yes"}}, {"type": "node", "id": 5545688654, "lat": 6.2663191, "lon": -75.5445784, "tags": {"name": "vimar", "opening_hours": "24/7", "shop": "chemist"}}, {"type": "node", "id": 5545740815, "lat": 6.2641288, "lon": -75.5420599, "tags": {"addr:housenumber": "numero 27 59", "addr:street": "Calle 70", "description": "vende medicamentos. sevedol, dolex gripa, dolex forte, buscapina, ibuprofeno, acetaminofen. venta frecuente de estos medicamentos, los medicamentos los deja almacenado en el empaque original.", "name": "tienda", "shop": "chemist"}}, {"type": "node", "id": 5546742850, "lat": 6.2634539, "lon": -75.5610557, "tags": {"addr:street": "Calle 67", "amenity": "pharmacy", "name": "Farma Vida", "source": "Kaart Ground Survey 2018"}}, {"type": "node", "id": 5546797415, "lat": 6.2987255, "lon": -75.5684026, "tags": {"addr:street": "Carrera 67", "amenity": "pharmacy", "name": "Droguer\u00eda Fharmaya", "source": "Kaart Ground Survey 2018"}}, {"type": "node", "id": 5546798329, "lat": 6.2929815, "lon": -75.5693514, "tags": {"addr:street": "Carrera 65", "amenity": "pharmacy", "name": "Droguer\u00eda Max Discuentas 2", "source": "Kaart Ground Survey 2018"}}, {"type": "node", "id": 5546798379, "lat": 6.3054798, "lon": -75.5679721, "tags": {"addr:street": "Carrera 68A", "amenity": "pharmacy", "name": "Droguer\u00eda Lider Medell\u00edn", "source": "Kaart Ground Survey 2018"}}, {"type": "node", "id": 5546798542, "lat": 6.3073453, "lon": -75.5683824, "tags": {"addr:street": "Carrera 70", "amenity": "pharmacy", "name": "Farmacenter", "source": "Kaart Ground Survey 2018"}}, {"type": "node", "id": 5546798563, "lat": 6.308747, "lon": -75.567732, "tags": {"addr:street": "Carrera 70", "amenity": "pharmacy", "name": "Droguer\u00eda Boyac\u00e1", "source": "Kaart Ground Survey 2018"}}, {"type": "node", "id": 5546856844, "lat": 6.2643663, "lon": -75.568869, "tags": {"amenity": "pharmacy", "check_date": "2023-08-12", "healthcare": "pharmacy", "name": "Farmafacil", "opening_hours": "Mo-Su 08:00-23:00", "source": "Kaart Ground Survey 2018"}}, {"type": "node", "id": 5548531934, "lat": 6.228108, "lon": -75.5772281, "tags": {"amenity": "pharmacy", "healthcare": "pharmacy", "name": "Cruz Roja", "name:es": "Cruz Roja"}}, {"type": "node", "id": 5548537526, "lat": 6.2428251, "lon": -75.6002941, "tags": {"amenity": "pharmacy", "check_date": "2022-11-07", "healthcare": "pharmacy", "name": "Drogas la Rebaja", "name:es": "Drogas la Rebaja", "phone": "+57 604 6041313"}}, {"type": "node", "id": 5549351703, "lat": 6.3004554, "lon": -75.5527576, "tags": {"addr:street": "Carrera 49B", "amenity": "pharmacy", "name": "Drogueria", "source": "Kaart Ground Survey 2018"}}, {"type": "node", "id": 5549351708, "lat": 6.2999195, "lon": -75.5512324, "tags": {"addr:street": "Calle 110", "amenity": "pharmacy", "name": "Drogueria Los Socios", "source": "Kaart Ground Survey 2018"}}, {"type": "node", "id": 5549351716, "lat": 6.2996782, "lon": -75.5496335, "tags": {"addr:street": "Calle 110", "amenity": "pharmacy", "name": "Drogueria", "source": "Kaart Ground Survey 2018"}}, {"type": "node", "id": 5549353422, "lat": 6.3002936, "lon": -75.5487932, "tags": {"addr:street": "Carrera 46", "amenity": "pharmacy", "name": "Drogueria", "source": "Kaart Ground Survey 2018"}}, {"type": "node", "id": 5549353464, "lat": 6.3014391, "lon": -75.5487789}, {"type": "node", "id": 5549353465, "lat": 6.3014704, "lon": -75.5486951}, {"type": "node", "id": 5549353466, "lat": 6.3015235, "lon": -75.5487151}, {"type": "node", "id": 5549353467, "lat": 6.3014922, "lon": -75.548799}, {"type": "node", "id": 5549353479, "lat": 6.3000359, "lon": -75.5567826}, {"type": "node", "id": 5549353480, "lat": 6.3000245, "lon": -75.5567484}, {"type": "node", "id": 5549353481, "lat": 6.3000625, "lon": -75.5567356}, {"type": "node", "id": 5549353482, "lat": 6.3000738, "lon": -75.5567698}, {"type": "node", "id": 5549357005, "lat": 6.2938533, "lon": -75.5714274, "tags": {"addr:street": "Calle 98", "amenity": "pharmacy", "name": "Versalles Droguer\u00eda", "source": "Kaart Ground Survey 2018"}}, {"type": "node", "id": 5549357383, "lat": 6.2934888, "lon": -75.5707549, "tags": {"addr:street": "Calle 98", "amenity": "pharmacy", "name": "Farma Paisa", "source": "Kaart Ground Survey 2018"}}, {"type": "node", "id": 5549357388, "lat": 6.2941773, "lon": -75.5728222, "tags": {"addr:city": "Comuna 5 - Castilla", "addr:housenumber": "70-9", "addr:street": "Calle 98", "amenity": "pharmacy", "healthcare": "pharmacy", "name": "Droguer\u00eda el Descanso", "source": "Kaart Ground Survey 2018"}}, {"type": "node", "id": 5549357433, "lat": 6.2913399, "lon": -75.5766108, "tags": {"addr:street": "Carrera 73", "amenity": "pharmacy", "name": "Droguer\u00eda Maracana", "source": "Kaart Ground Survey 2018"}}, {"type": "node", "id": 5558092736, "lat": 6.2928716, "lon": -75.5618917}, {"type": "node", "id": 5558092737, "lat": 6.2928496, "lon": -75.5618468}, {"type": "node", "id": 5558092738, "lat": 6.2928215, "lon": -75.5618607}, {"type": "node", "id": 5558092739, "lat": 6.2928435, "lon": -75.5619056}, {"type": "node", "id": 5619439577, "lat": 6.2465029, "lon": -75.5858671, "tags": {"amenity": "pharmacy", "healthcare": "pharmacy", "name": "Droguer\u00eda San Jose"}}, {"type": "node", "id": 5867365002, "lat": 6.2571533, "lon": -75.5665371, "tags": {"amenity": "pharmacy", "healthcare": "pharmacy", "name": "Drogas Estaci\u00f3n Prado", "source": "Kaart Ground Survey 2018"}}, {"type": "node", "id": 6032606785, "lat": 6.245198, "lon": -75.6007758, "tags": {"amenity": "pharmacy", "healthcare": "pharmacy", "name": "Droguer\u00eda La Rebaja", "opening_hours": "Mo-Sa 07:00-22:00; Su 09:00-20:00"}}, {"type": "node", "id": 6173421486, "lat": 6.2442334, "lon": -75.6129704, "tags": {"addr:housenumber": "34C-28", "addr:street": "Carrera 87C", "amenity": "pharmacy", "name": "Droguer\u00eda Almer\u00eda", "opening_hours": "Mo-Sa 08:00-21:00; Su 09:00-14:00", "phone": "+57 4 2530056"}}, {"type": "node", "id": 6355855075, "lat": 6.3036265, "lon": -75.5822232, "tags": {"name": "Droguer\u00eda conversalud", "shop": "chemist"}}, {"type": "node", "id": 6355861890, "lat": 6.3028465, "lon": -75.5825267, "tags": {"name": "DUMAR", "shop": "chemist"}}, {"type": "node", "id": 6736759574, "lat": 6.2268192, "lon": -75.601714, "tags": {"amenity": "pharmacy", "dispensing": "yes", "healthcare": "pharmacy"}}, {"type": "node", "id": 6744094586, "lat": 6.2120866, "lon": -75.5717493, "tags": {"amenity": "pharmacy", "name": "Drogeria Espicifica", "opening_hours": "Mo-Sa 08:30-19:00"}}, {"type": "node", "id": 6744965985, "lat": 6.2914699, "lon": -75.5828347, "tags": {"amenity": "pharmacy", "name": "Drogueria La Cordobesa", "name:en": "La Cordobesa Pharmacy"}}, {"type": "node", "id": 6756958317, "lat": 6.2131658, "lon": -75.570751, "tags": {"amenity": "pharmacy", "dispensing": "yes", "healthcare": "pharmacy"}}, {"type": "node", "id": 7229895929, "lat": 6.2323129, "lon": -75.5838242, "tags": {"shop": "chemist"}}, {"type": "node", "id": 7289113257, "lat": 6.2429886, "lon": -75.6023377, "tags": {"addr:city": "Comuna 11 - Laureles-Estadio", "addr:housenumber": "80B-29", "addr:street": "Calle 35", "delivery": "yes", "name": "Drogueria Especifica", "opening_hours": "Mo-Fr 08:00-19:00; Sa 08:00-18:00", "phone": "+57 604 4128900", "shop": "chemist", "survey:date": "2022-05-18", "website": "https://www.drogueriaespecifica.com/", "wheelchair": "no"}}, {"type": "node", "id": 7326671261, "lat": 6.2686833, "lon": -75.544711, "tags": {"shop": "chemist"}}, {"type": "node", "id": 7326947124, "lat": 6.2678716, "lon": -75.5444098, "tags": {"amenity": "pharmacy", "dispensing": "yes", "healthcare": "pharmacy", "shop": "clothes"}}, {"type": "node", "id": 7330239158, "lat": 6.297996, "lon": -75.5536676, "tags": {"amenity": "pharmacy", "dispensing": "yes", "healthcare": "pharmacy"}}, {"type": "node", "id": 7330239161, "lat": 6.2975903, "lon": -75.55461, "tags": {"amenity": "pharmacy", "dispensing": "yes", "healthcare": "pharmacy"}}, {"type": "node", "id": 7330310075, "lat": 6.2222699, "lon": -75.5744912, "tags": {"amenity": "pharmacy", "healthcare": "pharmacy", "name": "CAFAM"}}, {"type": "node", "id": 7330360865, "lat": 6.2724647, "lon": -75.5614413, "tags": {"amenity": "pharmacy", "dispensing": "yes", "healthcare": "pharmacy"}}, {"type": "node", "id": 7331865562, "lat": 6.2665136, "lon": -75.5444525, "tags": {"amenity": "pharmacy", "dispensing": "yes", "healthcare": "pharmacy", "name": "Droguer\u00eda Rolam"}}, {"type": "node", "id": 7332248640, "lat": 6.2947617, "lon": -75.5412716, "tags": {"addr:city": "Comuna 1 - Popular", "addr:street": "Carrera 29", "amenity": "pharmacy", "building": "yes", "dispensing": "no", "drive_through": "no", "healthcare": "pharmacy", "name": "Farmacia Sol y Vida"}}, {"type": "node", "id": 7333312717, "lat": 6.2037604, "lon": -75.5841588, "tags": {"amenity": "pharmacy", "shop": "convenience"}}, {"type": "node", "id": 7333313367, "lat": 6.3072283, "lon": -75.5655125, "tags": {"addr:city": "Medell\u00edn", "addr:street": "Calle 112", "amenity": "pharmacy", "dispensing": "yes", "healthcare": "pharmacy", "name": "Farmacenter la 67", "operator": "farmacenter"}}, {"type": "node", "id": 7333397407, "lat": 6.2299495, "lon": -75.5962813, "tags": {"name": "Drogueria Olaya #3", "shop": "chemist"}}, {"type": "node", "id": 7333421871, "lat": 6.282049, "lon": -75.5900925, "tags": {"addr:city": "Comuna 7 - Robledo", "amenity": "pharmacy", "dispensing": "yes", "healthcare": "pharmacy", "name": "Droguer\u00eda Grecia"}}, {"type": "node", "id": 7333421873, "lat": 6.2969386, "lon": -75.5665821, "tags": {"amenity": "pharmacy", "building": "yes"}}, {"type": "node", "id": 7333499342, "lat": 6.2323655, "lon": -75.5961526, "tags": {"amenity": "pharmacy", "building": "yes", "dispensing": "yes", "healthcare": "pharmacy", "name": "droguer\u00eda La Rebaja"}}, {"type": "node", "id": 7333511271, "lat": 6.2607331, "lon": -75.5647289, "tags": {"amenity": "pharmacy", "dispensing": "no", "healthcare": "pharmacy", "name": "Drogueria Amiga"}}, {"type": "node", "id": 7333556704, "lat": 6.265182, "lon": -75.5446337, "tags": {"amenity": "pharmacy", "dispensing": "no", "drive_through": "no", "healthcare": "pharmacy"}}, {"type": "node", "id": 7333567849, "lat": 6.2193535, "lon": -75.6037834, "tags": {"amenity": "pharmacy", "healthcare": "pharmacy", "name": "Farmacia Pastur"}}, {"type": "node", "id": 7333567855, "lat": 6.220069, "lon": -75.6059808}, {"type": "node", "id": 7333567856, "lat": 6.2200397, "lon": -75.6058923}, {"type": "node", "id": 7333567857, "lat": 6.2199784, "lon": -75.6059137}, {"type": "node", "id": 7333567858, "lat": 6.220005, "lon": -75.6060022}, {"type": "node", "id": 7334953503, "lat": 6.2636881, "lon": -75.5485695}, {"type": "node", "id": 7334953504, "lat": 6.2635473, "lon": -75.5486278}, {"type": "node", "id": 7334953505, "lat": 6.2635496, "lon": -75.5484206}, {"type": "node", "id": 7334953506, "lat": 6.2635743, "lon": -75.5484208}, {"type": "node", "id": 7335340214, "lat": 6.2666893, "lon": -75.5444919, "tags": {"payment:cash": "yes", "shop": "chemist"}}, {"type": "node", "id": 7336960573, "lat": 6.2315817, "lon": -75.6060247, "tags": {"amenity": "pharmacy", "dispensing": "yes", "healthcare": "pharmacy"}}, {"type": "node", "id": 7337265445, "lat": 6.3012194, "lon": -75.5566734}, {"type": "node", "id": 7337265446, "lat": 6.3011872, "lon": -75.5566911}, {"type": "node", "id": 7337265447, "lat": 6.3011822, "lon": -75.5566759}, {"type": "node", "id": 7337265448, "lat": 6.3011652, "lon": -75.5566886}, {"type": "node", "id": 7337265449, "lat": 6.3011746, "lon": -75.5567165}, {"type": "node", "id": 7337265450, "lat": 6.3011393, "lon": -75.5567279}, {"type": "node", "id": 7337265451, "lat": 6.3011248, "lon": -75.5567349}, {"type": "node", "id": 7337265452, "lat": 6.3011166, "lon": -75.5566949}, {"type": "node", "id": 7337265453, "lat": 6.3011387, "lon": -75.5566937}, {"type": "node", "id": 7337265454, "lat": 6.301128, "lon": -75.5566461}, {"type": "node", "id": 7337265455, "lat": 6.3012024, "lon": -75.5566252}, {"type": "node", "id": 7337265456, "lat": 6.301214, "lon": -75.5566582}, {"type": "node", "id": 7337282612, "lat": 6.2316557, "lon": -75.5961072, "tags": {"amenity": "pharmacy", "dispensing": "yes", "healthcare": "pharmacy", "name": "La botica Junin"}}, {"type": "node", "id": 7337282615, "lat": 6.2320917, "lon": -75.5965819, "tags": {"amenity": "pharmacy", "building": "yes", "dispensing": "yes", "healthcare": "pharmacy", "name": "La Rebaja"}}, {"type": "node", "id": 7337282623, "lat": 6.2320755, "lon": -75.5948317, "tags": {"amenity": "pharmacy", "dispensing": "yes", "healthcare": "pharmacy", "name": "MediPlux"}}, {"type": "node", "id": 7337305678, "lat": 6.2658497, "lon": -75.5934118, "tags": {"amenity": "pharmacy", "dispensing": "yes", "healthcare": "pharmacy"}}, {"type": "node", "id": 7337305680, "lat": 6.2660306, "lon": -75.5932904, "tags": {"amenity": "pharmacy", "dispensing": "yes", "healthcare": "pharmacy"}}, {"type": "node", "id": 7337305682, "lat": 6.2657594, "lon": -75.593253, "tags": {"amenity": "pharmacy", "dispensing": "yes", "healthcare": "pharmacy"}}, {"type": "node", "id": 7337316150, "lat": 6.235136, "lon": -75.6023877, "tags": {"name": "Pasteur", "opening_hours": "24/7", "shop": "chemist"}}, {"type": "node", "id": 7337316179, "lat": 6.2223971, "lon": -75.6092893, "tags": {"amenity": "pharmacy", "brand": "Farmacenter", "brand:wikidata": "Q62563928", "dispensing": "yes", "healthcare": "pharmacy", "name": "Farmacenter"}}, {"type": "node", "id": 7337374701, "lat": 6.2344637, "lon": -75.5964375, "tags": {"amenity": "pharmacy", "dispensing": "yes", "healthcare": "pharmacy"}}, {"type": "node", "id": 7338808316, "lat": 6.2697052, "lon": -75.5445962, "tags": {"name": "SPA", "operator": "venta de drogas alucinogenas", "shop": "chemist"}}, {"type": "node", "id": 7341138471, "lat": 6.2766569, "lon": -75.581103, "tags": {"shop": "chemist"}}, {"type": "node", "id": 7341138475, "lat": 6.2739137, "lon": -75.5824562, "tags": {"amenity": "pharmacy", "dispensing": "yes", "healthcare": "pharmacy"}}, {"type": "node", "id": 7341568549, "lat": 6.2783804, "lon": -75.5765729, "tags": {"shop": "chemist"}}, {"type": "node", "id": 7341568550, "lat": 6.2780753, "lon": -75.5766195, "tags": {"shop": "chemist"}}, {"type": "node", "id": 7341634207, "lat": 6.2841614, "lon": -75.5841762, "tags": {"shop": "chemist"}}, {"type": "node", "id": 7341634208, "lat": 6.2841459, "lon": -75.5843302, "tags": {"shop": "chemist"}}, {"type": "node", "id": 7341754683, "lat": 6.2948676, "lon": -75.5708953, "tags": {"addr:city": "Comuna 5 - Castilla", "addr:housenumber": "98-149", "addr:street": "Carrera 68", "amenity": "pharmacy", "dispensing": "yes", "healthcare": "pharmacy", "name": "Drogueria Eufarma"}}, {"type": "node", "id": 7341764311, "lat": 6.2947995, "lon": -75.5743574, "tags": {"addr:city": "Comuna 5 - Castilla", "addr:street": "Calle 98", "amenity": "pharmacy", "dispensing": "yes", "healthcare": "pharmacy", "name": "Drogueria Federal"}}, {"type": "node", "id": 7341813319, "lat": 6.2933447, "lon": -75.5712605, "tags": {"addr:city": "Comuna 5 - Castilla", "addr:housenumber": "97-112", "addr:street": "Carrera 68", "amenity": "pharmacy", "dispensing": "yes", "healthcare": "pharmacy", "name": "Drogueria San Judas"}}, {"type": "node", "id": 7341813320, "lat": 6.2922947, "lon": -75.5718351}, {"type": "node", "id": 7341813321, "lat": 6.2922729, "lon": -75.571774}, {"type": "node", "id": 7341813322, "lat": 6.292215, "lon": -75.571795}, {"type": "node", "id": 7341813323, "lat": 6.2922368, "lon": -75.571856}, {"type": "node", "id": 7345094919, "lat": 6.2172606, "lon": -75.5985852, "tags": {"amenity": "pharmacy", "healthcare": "pharmacy", "name": "Farmacia Pasteur"}}, {"type": "node", "id": 7345094945, "lat": 6.2194149, "lon": -75.5986396, "tags": {"amenity": "pharmacy", "dispensing": "yes", "healthcare": "pharmacy", "name": "SantaFarm"}}, {"type": "node", "id": 7346654417, "lat": 6.2152115, "lon": -75.597544, "tags": {"amenity": "pharmacy", "healthcare": "pharmacy", "name": "Droguer\u00eda Alemana"}}, {"type": "node", "id": 7346679719, "lat": 6.2146891, "lon": -75.6017507, "tags": {"amenity": "pharmacy", "dispensing": "yes", "healthcare": "pharmacy", "name": "Droguer\u00eda y Variedades El Imperio"}}, {"type": "node", "id": 7347180256, "lat": 6.2136975, "lon": -75.601962}, {"type": "node", "id": 7347180257, "lat": 6.2136469, "lon": -75.6019566}, {"type": "node", "id": 7347180258, "lat": 6.2136095, "lon": -75.6019244}, {"type": "node", "id": 7347180259, "lat": 6.2136229, "lon": -75.6018332}, {"type": "node", "id": 7347180260, "lat": 6.2137082, "lon": -75.6018601}, {"type": "node", "id": 7347267513, "lat": 6.2118829, "lon": -75.6019166, "tags": {"amenity": "pharmacy", "dispensing": "yes", "healthcare": "pharmacy", "name": "Drogas Pharmax"}}, {"type": "node", "id": 7348395491, "lat": 6.2396324, "lon": -75.5971758}, {"type": "node", "id": 7348395492, "lat": 6.2396333, "lon": -75.5972224}, {"type": "node", "id": 7348395493, "lat": 6.2396919, "lon": -75.5972211}, {"type": "node", "id": 7348395494, "lat": 6.2396932, "lon": -75.5971209}, {"type": "node", "id": 7348395495, "lat": 6.239632, "lon": -75.5971187}, {"type": "node", "id": 7348395496, "lat": 6.2396324, "lon": -75.5971653}, {"type": "node", "id": 7348395497, "lat": 6.239653, "lon": -75.5971661}, {"type": "node", "id": 7348395498, "lat": 6.239653, "lon": -75.5971767}, {"type": "node", "id": 7348400201, "lat": 6.242354, "lon": -75.5971741}, {"type": "node", "id": 7348400202, "lat": 6.2423661, "lon": -75.5971741}, {"type": "node", "id": 7348400203, "lat": 6.2423629, "lon": -75.5971354}, {"type": "node", "id": 7348400204, "lat": 6.2424039, "lon": -75.5971354}, {"type": "node", "id": 7348400205, "lat": 6.2424039, "lon": -75.5972495}, {"type": "node", "id": 7348400206, "lat": 6.2423552, "lon": -75.5972514}, {"type": "node", "id": 7348674045, "lat": 6.2428007, "lon": -75.6020757}, {"type": "node", "id": 7348674046, "lat": 6.2427199, "lon": -75.6020897}, {"type": "node", "id": 7348674047, "lat": 6.2427301, "lon": -75.602157}, {"type": "node", "id": 7348674048, "lat": 6.2428118, "lon": -75.6021421}, {"type": "node", "id": 7348952145, "lat": 6.3092628, "lon": -75.5695047, "tags": {"addr:city": "Medellin", "addr:street": "Calle 113 # 72a39", "amenity": "pharmacy", "dispensing": "yes", "healthcare": "pharmacy", "name": "Drogeria Zodiaco"}}, {"type": "node", "id": 7351148202, "lat": 6.2076589, "lon": -75.6009114, "tags": {"amenity": "pharmacy", "dispensing": "yes", "healthcare": "pharmacy"}}, {"type": "node", "id": 7352018617, "lat": 6.2026756, "lon": -75.6013918, "tags": {"amenity": "pharmacy", "dispensing": "yes", "healthcare": "pharmacy", "name": "Farmacia Pasteur"}}, {"type": "node", "id": 7352109537, "lat": 6.2035255, "lon": -75.6045547, "tags": {"amenity": "pharmacy", "dispensing": "yes", "healthcare": "pharmacy"}}, {"type": "node", "id": 7352544218, "lat": 6.2870435, "lon": -75.5490909, "tags": {"amenity": "pharmacy", "dispensing": "yes", "healthcare": "pharmacy", "name": "Droguer\u00eda River"}}, {"type": "node", "id": 7352830231, "lat": 6.2012265, "lon": -75.5894027, "tags": {"name": "Droguerias Uno-A", "shop": "chemist"}}, {"type": "node", "id": 7352830232, "lat": 6.201784, "lon": -75.5884061, "tags": {"name": "Droguer\u00eda San Miguel", "shop": "chemist"}}, {"type": "node", "id": 7352830248, "lat": 6.2051011, "lon": -75.5872703, "tags": {"name": "La Rebaja", "shop": "chemist"}}, {"type": "node", "id": 7353455542, "lat": 6.2637893, "lon": -75.5705318, "tags": {"amenity": "pharmacy", "dispensing": "no", "drive_through": "no", "healthcare": "pharmacy", "name": "Drogueria Paseo de Sevilla"}}, {"type": "node", "id": 7357074781, "lat": 6.3060241, "lon": -75.5527978, "tags": {"name": "Constelaci\u00f3n", "shop": "chemist"}}, {"type": "node", "id": 7357096851, "lat": 6.3063359, "lon": -75.5533728, "tags": {"name": "El play\u00f3n", "shop": "chemist"}}, {"type": "node", "id": 7365259071, "lat": 6.2713141, "lon": -75.5617699, "tags": {"amenity": "pharmacy", "dispensing": "yes", "healthcare": "pharmacy", "name": "Droguer\u00eda Juanjo"}}, {"type": "node", "id": 7365566910, "lat": 6.265215, "lon": -75.6009826, "tags": {"amenity": "pharmacy", "dispensing": "yes", "healthcare": "pharmacy"}}, {"type": "node", "id": 7365566922, "lat": 6.2687247, "lon": -75.6044273, "tags": {"amenity": "pharmacy", "dispensing": "yes", "healthcare": "pharmacy"}}, {"type": "node", "id": 7365566976, "lat": 6.2586672, "lon": -75.6040183, "tags": {"amenity": "pharmacy", "dispensing": "yes", "healthcare": "pharmacy"}}, {"type": "node", "id": 7365566977, "lat": 6.2585792, "lon": -75.603859, "tags": {"amenity": "pharmacy", "dispensing": "yes", "healthcare": "pharmacy"}}, {"type": "node", "id": 7365572638, "lat": 6.2364588, "lon": -75.584092, "tags": {"amenity": "pharmacy", "building": "yes", "dispensing": "yes", "healthcare": "pharmacy"}}, {"type": "node", "id": 7365572639, "lat": 6.2334289, "lon": -75.5838573, "tags": {"amenity": "pharmacy", "building": "yes", "dispensing": "yes", "healthcare": "pharmacy"}}, {"type": "node", "id": 7385312729, "lat": 6.2592253, "lon": -75.5978224, "tags": {"name": "Droguer\u00eda Alemana", "shop": "chemist"}}, {"type": "node", "id": 7385312732, "lat": 6.2604302, "lon": -75.5974726, "tags": {"name": "Droguer\u00eda La rebaja", "shop": "chemist"}}, {"type": "node", "id": 7409123562, "lat": 6.2926529, "lon": -75.5454084, "tags": {"amenity": "pharmacy", "healthcare": "pharmacy", "name": "Droguerua Cafarma"}}, {"type": "node", "id": 7415742475, "lat": 6.2206148, "lon": -75.5926084, "tags": {"amenity": "pharmacy", "dispensing": "yes", "healthcare": "pharmacy", "name": "Droguer\u00eda Juan Pablo II"}}, {"type": "node", "id": 7415778789, "lat": 6.220468, "lon": -75.5945558, "tags": {"amenity": "pharmacy", "dispensing": "yes", "healthcare": "pharmacy", "name": "Droguer\u00eda Las Playas"}}, {"type": "node", "id": 7415852158, "lat": 6.2575186, "lon": -75.5923497, "tags": {"name": "La Metafora", "opening_hours": "Mo-Fr 08:00-18:00", "phone": "+57 4 2301100", "shop": "chemist"}}, {"type": "node", "id": 7415902903, "lat": 6.2499359, "lon": -75.5937043, "tags": {"name": "Serfamed", "opening_hours": "Mo-Sa 08:00-20:00", "phone": "+57 4 4129677", "shop": "chemist"}}, {"type": "node", "id": 7415902904, "lat": 6.2507243, "lon": -75.592017, "tags": {"name": "Droguer\u00eda Florida Nueva", "phone": "+57 4 4122917", "shop": "chemist"}}, {"type": "node", "id": 7415939701, "lat": 6.2521208, "lon": -75.5965866, "tags": {"name": "Droguer\u00eda El Vel\u00f3dromo", "opening_hours": "Mo-Sa 08:00-21:00, Mo 09:00-13:00", "shop": "chemist"}}, {"type": "node", "id": 7415939702, "lat": 6.2499159, "lon": -75.5961308, "tags": {"name": "Farmaofertas", "opening_hours": "Mo-Su 08:00-20:00", "phone": "+57 4 4168055", "shop": "chemist"}}, {"type": "node", "id": 7416003349, "lat": 6.230379, "lon": -75.5965634, "tags": {"amenity": "pharmacy", "building": "yes", "dispensing": "yes", "healthcare": "pharmacy", "name": "Droguer\u00eda Cafam Exito Bel\u00e9n"}}, {"type": "node", "id": 7417853340, "lat": 6.2504154, "lon": -75.5884184, "tags": {"amenity": "pharmacy", "check_date": "2025-08-31", "name": "Drogueria Cruz Verde Bulevar la 70", "opening_hours": "24/7", "phone": "01 800 0999991", "wheelchair": "no"}}, {"type": "node", "id": 7417853341, "lat": 6.2505053, "lon": -75.5886794, "tags": {"name": "Drogueria La Rebaja", "shop": "chemist"}}, {"type": "node", "id": 7417853342, "lat": 6.2509879, "lon": -75.5911416, "tags": {"name": "Drogueria ServiMedical", "phone": "+57 4 4982157", "shop": "chemist"}}, {"type": "node", "id": 7440142471, "lat": 6.2230153, "lon": -75.592762, "tags": {"addr:city": "Medell\u00edn", "addr:street": "Calle 19 #70A-30", "amenity": "pharmacy", "dispensing": "yes", "healthcare": "pharmacy", "name": "Droguer\u00eda Master", "opening_hours": "Mo-Sa 08:00-21:00", "phone": "+57 4 3416349", "website": "https://www.instagram.com/drogueriamaster/"}}, {"type": "node", "id": 7446721127, "lat": 6.2237808, "lon": -75.6100551, "tags": {"amenity": "pharmacy", "dispensing": "yes", "healthcare": "pharmacy", "name": "Mas Farma"}}, {"type": "node", "id": 7447444648, "lat": 6.2347641, "lon": -75.602064, "tags": {"name": "La Farmacia Biol\u00f3gica", "shop": "chemist"}}, {"type": "node", "id": 7447465947, "lat": 6.268029, "lon": -75.5686547, "tags": {"shop": "chemist"}}, {"type": "node", "id": 7454229242, "lat": 6.2926867, "lon": -75.5501864, "tags": {"name": "Droguer\u00eda Surtimax", "shop": "chemist"}}, {"type": "node", "id": 7461357303, "lat": 6.2866613, "lon": -75.5491567, "tags": {"amenity": "pharmacy", "dispensing": "yes", "healthcare": "pharmacy", "name": "Droguer\u00eda California"}}, {"type": "node", "id": 7461357306, "lat": 6.2867493, "lon": -75.5499667, "tags": {"amenity": "pharmacy", "dispensing": "yes", "healthcare": "pharmacy", "name": "Droguer\u00eda La Santillana"}}, {"type": "node", "id": 7499399327, "lat": 6.2910446, "lon": -75.5470962, "tags": {"name": "Droguer\u00eda Danysar", "shop": "chemist"}}, {"type": "node", "id": 7706077611, "lat": 6.2236202, "lon": -75.594957, "tags": {"amenity": "pharmacy", "dispensing": "yes", "healthcare": "pharmacy", "name": "Droguer\u00eda Farmadrogas La 73", "phone": "+57 (4)4441054"}}, {"type": "node", "id": 7706077621, "lat": 6.2242929, "lon": -75.5965389, "tags": {"amenity": "pharmacy", "dispensing": "yes", "healthcare": "pharmacy", "name": "Droger\u00eda"}}, {"type": "node", "id": 7706077622, "lat": 6.2243622, "lon": -75.5946655, "tags": {"amenity": "pharmacy", "dispensing": "yes", "healthcare": "pharmacy"}}, {"type": "node", "id": 7706077628, "lat": 6.2248448, "lon": -75.596421, "tags": {"amenity": "pharmacy", "dispensing": "yes", "healthcare": "pharmacy", "name": "Droguer\u00eda Servidescuentos", "phone": "+57 (4) 4165455"}}, {"type": "node", "id": 7706077631, "lat": 6.2254288, "lon": -75.5960895, "tags": {"amenity": "pharmacy", "dispensing": "yes", "healthcare": "pharmacy", "name": "Droguer\u00eda y Variedades V\u00e1squez", "phone": "+57 (4) 3539157"}}, {"type": "node", "id": 7808521296, "lat": 6.2643845, "lon": -75.5656009, "tags": {"amenity": "pharmacy", "dispensing": "yes", "healthcare": "pharmacy", "name": "Drogas la Rebaja"}}, {"type": "node", "id": 7808521299, "lat": 6.2647481, "lon": -75.5673037, "tags": {"amenity": "pharmacy", "dispensing": "yes", "healthcare": "pharmacy", "name": "Farmacia Pasteur"}}, {"type": "node", "id": 8607462817, "lat": 6.2563682, "lon": -75.5860567, "tags": {"amenity": "pharmacy", "name": "Farmacia colsubsidio"}}, {"type": "node", "id": 9104462627, "lat": 6.2605801, "lon": -75.5901292, "tags": {"amenity": "pharmacy", "dispensing": "yes", "healthcare": "pharmacy"}}, {"type": "node", "id": 9106677130, "lat": 6.2397279, "lon": -75.5801668, "tags": {"amenity": "pharmacy", "dispensing": "yes", "healthcare": "pharmacy", "operator": "Drogas la Rebaja"}}, {"type": "node", "id": 9115547075, "lat": 6.2504025, "lon": -75.5831427, "tags": {"amenity": "pharmacy", "dispensing": "yes", "healthcare": "pharmacy", "name": "Drogas La Rebaja"}}, {"type": "node", "id": 9146859967, "lat": 6.2486216, "lon": -75.5987858, "tags": {"amenity": "pharmacy", "dispensing": "yes", "healthcare": "pharmacy", "name": "Drogas la Rebaja"}}, {"type": "node", "id": 9163802080, "lat": 6.2502695, "lon": -75.5995358, "tags": {"amenity": "pharmacy", "dispensing": "yes", "healthcare": "pharmacy", "name": "Drogas la Rebaja"}}, {"type": "node", "id": 9180365033, "lat": 6.252682, "lon": -75.6220269, "tags": {"amenity": "pharmacy", "dispensing": "yes", "healthcare": "pharmacy", "name": "Don Juan"}}, {"type": "node", "id": 9239187847, "lat": 6.2386587, "lon": -75.60036, "tags": {"man_made": "cross", "name": "Punt Inic Drogeria Comercial Laureles"}}, {"type": "node", "id": 9583279717, "lat": 6.2506073, "lon": -75.596922, "tags": {"healthcare": "pharmacy", "name": "Droguer\u00eda Pasteur", "shop": "chemist", "survey:date": "2022-03-16", "wheelchair": "yes"}}, {"type": "node", "id": 9590134917, "lat": 6.2439117, "lon": -75.6108073, "tags": {"check_date": "2025-09-04", "check_date:opening_hours": "2025-09-04", "name": "Droguer\u00eda Big-Ben", "opening_hours": "Mo-Sa 07:00-21:00; Su 09:00-18:00", "phone": "+57 604 3223088", "shop": "chemist", "wheelchair": "no"}}, {"type": "node", "id": 9593314875, "lat": 6.3030405, "lon": -75.5712487, "tags": {"addr:street": "Calle 105A #74-54", "amenity": "pharmacy", "dispensing": "yes", "healthcare": "pharmacy", "name": "Drogueria Expresso #1", "opening_hours": "Mo-Su 08:00-22:00"}}, {"type": "node", "id": 9593314882, "lat": 6.3040936, "lon": -75.5704471, "tags": {"addr:city": "Medell\u00edn", "addr:street": "Carrera 74 #106-6", "amenity": "pharmacy", "dispensing": "yes", "healthcare": "pharmacy", "name": "Drogueria la 74"}}, {"type": "node", "id": 9596064133, "lat": 6.2928438, "lon": -75.5934376, "tags": {"amenity": "pharmacy", "dispensing": "yes", "healthcare": "pharmacy", "name": "Droguer\u00eda Aures Centro"}}, {"type": "node", "id": 9604642925, "lat": 6.2843714, "lon": -75.5903579, "tags": {"amenity": "pharmacy", "dispensing": "yes", "healthcare": "pharmacy", "name": "DROGUERIA BELLO HORIZONTE"}}, {"type": "node", "id": 9752888020, "lat": 6.2431781, "lon": -75.6041011, "tags": {"name": "Droguer\u00edas Supermedikas", "phone": "+57 604 3223607", "shop": "chemist", "survey:date": "2022-05-18", "wheelchair": "no"}}, {"type": "node", "id": 10167014718, "lat": 6.2477409, "lon": -75.5888173, "tags": {"name": "Droguer\u00eda Alemana", "phone": "+57 604 4446060", "shop": "chemist", "survey:date": "2022-11-07", "wheelchair": "yes"}}, {"type": "node", "id": 10262996694, "lat": 6.2328496, "lon": -75.6146738, "tags": {"amenity": "pharmacy", "drive_through": "no", "healthcare": "pharmacy", "name": "Droguer\u00eda Game 2"}}, {"type": "node", "id": 10766173883, "lat": 6.1965427, "lon": -75.5742306, "tags": {"addr:city": "Medell\u00edn, ANT", "addr:housenumber": "43a", "addr:postcode": "050022", "addr:street": "Carrera, Calle 7 Sur - 170", "description": "Mexicosalud Colombia presenta revisiones de los mejores nutricionistas y farmac\u00f3logos sobre medicamentos para la diabetes, cistitis, potencia, prostatitis.", "email": "info@mexicosalud.com", "language:en": "yes", "language:es": "yes", "name": "Mexicosalud", "phone": "300 9294555", "shop": "chemist", "website": "https://mexicosalud.com/catalog/colombia"}}, {"type": "node", "id": 10800489705, "lat": 6.2131453, "lon": -75.5701475, "tags": {"amenity": "pharmacy", "name": "Ivanagro"}}, {"type": "node", "id": 10801504506, "lat": 6.2146104, "lon": -75.5702348, "tags": {"amenity": "pharmacy", "name": "Ivanagro"}}, {"type": "node", "id": 10925341792, "lat": 6.1992664, "lon": -75.5732595}, {"type": "node", "id": 10925341793, "lat": 6.1993421, "lon": -75.573258}, {"type": "node", "id": 10925341794, "lat": 6.1993709, "lon": -75.5731468}, {"type": "node", "id": 10925341795, "lat": 6.1993845, "lon": -75.5731422}, {"type": "node", "id": 10925341796, "lat": 6.1993815, "lon": -75.5730767}, {"type": "node", "id": 10925341797, "lat": 6.1993678, "lon": -75.5730782}, {"type": "node", "id": 10925341798, "lat": 6.1993179, "lon": -75.5730386}, {"type": "node", "id": 10925341799, "lat": 6.1993254, "lon": -75.5730082}, {"type": "node", "id": 10925341800, "lat": 6.1993088, "lon": -75.5729899}, {"type": "node", "id": 10925341801, "lat": 6.1992679, "lon": -75.5729899}, {"type": "node", "id": 10925341802, "lat": 6.1992618, "lon": -75.5729259}, {"type": "node", "id": 10925341803, "lat": 6.199177, "lon": -75.5729807}, {"type": "node", "id": 10925341804, "lat": 6.1991528, "lon": -75.572999}, {"type": "node", "id": 10925356605, "lat": 6.1991725, "lon": -75.5730737}, {"type": "node", "id": 10925356606, "lat": 6.1991876, "lon": -75.5730798}, {"type": "node", "id": 10925356607, "lat": 6.1991952, "lon": -75.5731041}, {"type": "node", "id": 10925356608, "lat": 6.1992133, "lon": -75.5731697}, {"type": "node", "id": 10925356609, "lat": 6.1992073, "lon": -75.5730973}, {"type": "node", "id": 11191464438, "lat": 6.2560906, "lon": -75.6165818, "tags": {"addr:street": "Calle 42", "shop": "chemist"}}, {"type": "node", "id": 11207789861, "lat": 6.2508646, "lon": -75.5696095, "tags": {"amenity": "pharmacy", "healthcare": "pharmacy", "name": "Pasteur"}}, {"type": "node", "id": 11207800474, "lat": 6.2509502, "lon": -75.5693583, "tags": {"amenity": "pharmacy", "healthcare": "pharmacy", "name": "Farmacia Pasteur", "opening_hours": "Mo-Fr 07:30-18:50; Sa 07:30-18:20"}}, {"type": "node", "id": 11207810084, "lat": 6.2509327, "lon": -75.5694633, "tags": {"amenity": "pharmacy", "healthcare": "pharmacy", "name": "Macarena"}}, {"type": "node", "id": 11207856331, "lat": 6.2509189, "lon": -75.5657626, "tags": {"amenity": "pharmacy", "name": "Todo drogas"}}, {"type": "node", "id": 11207935243, "lat": 6.2504242, "lon": -75.5662546, "tags": {"amenity": "pharmacy", "healthcare": "pharmacy", "name": "L\u00ednea Est\u00e9tica"}}, {"type": "node", "id": 11207941259, "lat": 6.2506305, "lon": -75.5661347, "tags": {"amenity": "pharmacy", "brand": "Cruz Verde", "brand:wikidata": "Q5856071", "healthcare": "pharmacy", "name": "Cruz Verde", "opening_hours": "Mo-Sa 08:00-19:00;Su,PH 09:00-17:00"}}, {"type": "node", "id": 11207941690, "lat": 6.2514933, "lon": -75.5654305, "tags": {"name": "Medipiel", "shop": "chemist"}}, {"type": "node", "id": 11208088853, "lat": 6.2491308, "lon": -75.561996, "tags": {"amenity": "pharmacy", "healthcare": "pharmacy", "name": "Droguer\u00eda Girardot"}}, {"type": "node", "id": 11271860123, "lat": 6.2028175, "lon": -75.5717109, "tags": {"amenity": "pharmacy", "brand": "Cruz Verde", "brand:wikidata": "Q5856071", "healthcare": "pharmacy", "name": "Cruz Verde"}}, {"type": "node", "id": 11531492269, "lat": 6.2108662, "lon": -75.5710108, "tags": {"amenity": "pharmacy", "name": "La Rebaja Plus Minimarket Drogueria"}}, {"type": "node", "id": 11539115069, "lat": 6.2136131, "lon": -75.5733977, "tags": {"amenity": "pharmacy", "contact:instagram": "fullmedics_co", "name": "Full Medics", "phone": "+573054811731", "website": "http://www.fullmedics.com.co"}}, {"type": "node", "id": 11541744288, "lat": 6.2266319, "lon": -75.5438564}, {"type": "node", "id": 11541744289, "lat": 6.226662, "lon": -75.5439349}, {"type": "node", "id": 11541744290, "lat": 6.2267789, "lon": -75.5439012}, {"type": "node", "id": 11764532177, "lat": 6.2522442, "lon": -75.5635698, "tags": {"amenity": "pharmacy", "check_date": "2024-03-26", "healthcare": "pharmacy", "name": "Droguer\u00eda Alemana"}}, {"type": "node", "id": 11815693683, "lat": 6.2668082, "lon": -75.6010899, "tags": {"amenity": "pharmacy", "healthcare": "pharmacy"}}, {"type": "node", "id": 11831808502, "lat": 6.2842246, "lon": -75.6084725, "tags": {"addr:city": "Comuna 7 - Robledo", "addr:postcode": "050036", "addr:street": "Calle 64AG", "amenity": "pharmacy", "dispensing": "yes", "drive_through": "no", "healthcare": "pharmacy", "name": "drogueria multi ahorro plus", "opening_hours": "Mo-Fr 09:00-21:00"}}, {"type": "node", "id": 11831808517, "lat": 6.2847079, "lon": -75.6080864, "tags": {"addr:city": "Comuna 7 - Robledo", "addr:postcode": "050036", "addr:street": "Calle 64", "amenity": "pharmacy", "dispensing": "yes", "drive_through": "no", "healthcare": "pharmacy", "name": "Drogueria Pa\u00b4mi gente", "opening_hours": "Mo-Su 09:00-21:00"}}, {"type": "node", "id": 11842513752, "lat": 6.2656647, "lon": -75.5583603, "tags": {"amenity": "pharmacy", "healthcare": "pharmacy", "name": "drogueriala farma"}}, {"type": "node", "id": 11848524564, "lat": 6.2909912, "lon": -75.5664196, "tags": {"addr:city": "Comuna 5 - Castilla", "addr:housenumber": "Cra. 63c #96 A 83 Bloque 67", "addr:place": "Tricentenario", "amenity": "pharmacy", "dispensing": "yes", "healthcare": "pharmacy", "name": "Droguer\u00eda Vitalfharma", "opening_hours": "Mo-Su 09:00-21:00", "phone": "(604) 5061557"}}, {"type": "node", "id": 11848606646, "lat": 6.2888294, "lon": -75.5805528}, {"type": "node", "id": 11848606647, "lat": 6.2888066, "lon": -75.5805018}, {"type": "node", "id": 11848606648, "lat": 6.2888856, "lon": -75.5804661}, {"type": "node", "id": 11848606649, "lat": 6.2889084, "lon": -75.5805171}, {"type": "node", "id": 11848916443, "lat": 6.3084145, "lon": -75.5850171, "tags": {"amenity": "pharmacy", "healthcare": "pharmacy"}}, {"type": "node", "id": 11848916444, "lat": 6.3037913, "lon": -75.5755615, "tags": {"amenity": "pharmacy", "healthcare": "pharmacy"}}, {"type": "node", "id": 11848916448, "lat": 6.2990158, "lon": -75.5826166, "tags": {"amenity": "pharmacy", "healthcare": "pharmacy"}}, {"type": "node", "id": 11848916449, "lat": 6.3009442, "lon": -75.5818892, "tags": {"amenity": "pharmacy", "healthcare": "pharmacy"}}, {"type": "node", "id": 11848916450, "lat": 6.3038552, "lon": -75.5819763, "tags": {"amenity": "pharmacy", "healthcare": "pharmacy"}}, {"type": "node", "id": 11848916452, "lat": 6.2962027, "lon": -75.5824643, "tags": {"amenity": "pharmacy", "healthcare": "pharmacy"}}, {"type": "node", "id": 11848916453, "lat": 6.2964835, "lon": -75.5808046, "tags": {"amenity": "pharmacy", "healthcare": "pharmacy"}}, {"type": "node", "id": 11848916454, "lat": 6.3020016, "lon": -75.5781428, "tags": {"amenity": "pharmacy", "healthcare": "pharmacy"}}, {"type": "node", "id": 11907655131, "lat": 6.2595844, "lon": -75.5807024, "tags": {"amenity": "pharmacy", "healthcare": "pharmacy"}}, {"type": "node", "id": 11985006610, "lat": 6.2602778, "lon": -75.5820007, "tags": {"amenity": "pharmacy", "name": "Drogueria Nueva Imagen"}}, {"type": "node", "id": 12057505871, "lat": 6.2540528, "lon": -75.5391663, "tags": {"name": "Faro salud", "shop": "chemist"}}, {"type": "node", "id": 12057517070, "lat": 6.2547436, "lon": -75.5394591, "tags": {"amenity": "fast_food", "highway": "rest_area", "name": "Droguer\u00eda del faro", "shop": "chemist"}}, {"type": "node", "id": 12077592739, "lat": 6.2838227, "lon": -75.6060147, "tags": {"name": "Droguer\u00eda Mi Laura", "opening_hours": "Mo-Sa 08:00-21:00", "shop": "chemist"}}, {"type": "node", "id": 12083884701, "lat": 6.2810593, "lon": -75.6046745, "tags": {"name": "Droguer\u00eda La campi\u00f1a", "opening_hours": "Mo-Sa 08:00-18:00", "shop": "chemist"}}, {"type": "node", "id": 12083956801, "lat": 6.281929, "lon": -75.6040284, "tags": {"name": "Maxidrogas principal", "opening_hours": "Mo-Sa 08:00-20:00", "shop": "chemist"}}, {"type": "node", "id": 12083959158, "lat": 6.2825083, "lon": -75.6036495, "tags": {"name": "Droguer\u00eda", "opening_hours": "Mo-Sa 08:00-21:00", "shop": "chemist"}}, {"type": "node", "id": 12097790320, "lat": 6.2750995, "lon": -75.5951963, "tags": {"amenity": "pharmacy", "dispensing": "no", "healthcare": "pharmacy", "name": "Drogueria La Rebaja"}}, {"type": "node", "id": 12101300802, "lat": 6.2542126, "lon": -75.5390327, "tags": {"name": "Droguer\u00eda Faro Salud", "shop": "chemist"}}, {"type": "node", "id": 12101312701, "lat": 6.254325, "lon": -75.5395697, "tags": {"name": "Salud", "shop": "chemist"}}, {"type": "node", "id": 12335089797, "lat": 6.2556947, "lon": -75.5824294, "tags": {"name": "Master Health", "shop": "chemist"}}, {"type": "node", "id": 12641891601, "lat": 6.1907903, "lon": -75.580019, "tags": {"amenity": "pharmacy", "name": "Farmatodo"}}, {"type": "node", "id": 12717671481, "lat": 6.2144135, "lon": -75.5972072}, {"type": "node", "id": 12717671482, "lat": 6.2143238, "lon": -75.5971628}, {"type": "node", "id": 12717671483, "lat": 6.2143687, "lon": -75.597063}, {"type": "node", "id": 12717671484, "lat": 6.2144628, "lon": -75.5971124}, {"type": "node", "id": 12847395978, "lat": 6.267225, "lon": -75.6134209, "tags": {"amenity": "pharmacy", "name": "Farma Plus Droguer\u00eda"}}, {"type": "node", "id": 12873859296, "lat": 6.2017095, "lon": -75.5681132}, {"type": "node", "id": 12873859297, "lat": 6.2012992, "lon": -75.5682784}, {"type": "node", "id": 12873859298, "lat": 6.2012162, "lon": -75.5680327}, {"type": "node", "id": 12873859299, "lat": 6.2016325, "lon": -75.5678837}, {"type": "node", "id": 12873859300, "lat": 6.1972549, "lon": -75.5656186, "tags": {"addr:housenumber": "2 Sur 85", "addr:street": "Carrera 32", "amenity": "pharmacy", "brand": "Farmatodo", "brand:wikidata": "Q5856092", "healthcare": "pharmacy", "name": "Farmatodo"}}, {"type": "node", "id": 12877306203, "lat": 6.2031, "lon": -75.5716182, "tags": {"amenity": "pharmacy", "healthcare": "pharmacy", "name": "Colsubsidio Droguer\u00eda"}}, {"type": "node", "id": 12996420667, "lat": 6.2906571, "lon": -75.5411383}, {"type": "node", "id": 12996422541, "lat": 6.2907562, "lon": -75.5411559}, {"type": "node", "id": 12996422542, "lat": 6.2907142, "lon": -75.5411145}, {"type": "node", "id": 12996422543, "lat": 6.2906539, "lon": -75.5411256}, {"type": "node", "id": 12996422544, "lat": 6.2906707, "lon": -75.5411913}, {"type": "node", "id": 12996422545, "lat": 6.2907345, "lon": -75.5411805}, {"type": "node", "id": 13092935842, "lat": 6.2171439, "lon": -75.5986696, "tags": {"amenity": "pharmacy", "healthcare": "pharmacy", "name": "La Rebaja"}}, {"type": "node", "id": 13099168655, "lat": 6.2397451, "lon": -75.5965972, "tags": {"amenity": "pharmacy", "brand": "Farmatodo", "healthcare": "pharmacy", "name": "Farmatodo", "opening_hours": "24/7"}}, {"type": "node", "id": 13101085234, "lat": 6.2237741, "lon": -75.5725979, "tags": {"amenity": "pharmacy", "brand": "Cruz Verde", "healthcare": "pharmacy", "name": "Cruz Verde"}}, {"type": "node", "id": 13112454894, "lat": 6.2448218, "lon": -75.5946277, "tags": {"amenity": "pharmacy", "check_date": "2025-09-01", "healthcare": "pharmacy", "name": "Cafam"}}, {"type": "node", "id": 13113013019, "lat": 6.245348, "lon": -75.5953179, "tags": {"amenity": "pharmacy", "brand": "Cruz Verde", "brand:wikidata": "Q5856071", "check_date": "2025-09-01", "healthcare": "pharmacy", "name": "Cruz Verde", "wheelchair": "yes"}}, {"type": "node", "id": 13116984544, "lat": 6.2402097, "lon": -75.5871141, "tags": {"amenity": "pharmacy", "check_date": "2025-09-03", "healthcare": "pharmacy", "name": "Cafam", "wheelchair": "yes"}}, {"type": "node", "id": 13119502148, "lat": 6.2510692, "lon": -75.6052716, "tags": {"amenity": "pharmacy", "check_date": "2025-09-04", "healthcare": "pharmacy", "name": "Pasteur", "opening_hours": "24/7"}}, {"type": "way", "id": 238806029, "nodes": [2466029065, 2466029066, 2466029067, 2466029068, 2466029065], "tags": {"building": "yes", "name": "Droguer\u00eda La Econom\u00eda", "phone": "+34 4273310", "shop": "chemist"}}, {"type": "way", "id": 275091907, "nodes": [2797552043, 2797552045, 2797552046, 2797552044, 2797552043], "tags": {"shop": "chemist"}}, {"type": "way", "id": 344598675, "nodes": [3513463761, 3513463762, 3513463763, 3513463764, 3513463761], "tags": {"building": "yes", "name": "Drogueria Aguas Frias", "shop": "chemist"}}, {"type": "way", "id": 344866076, "nodes": [3515984967, 3515984968, 3515984969, 3515984970, 3515984967], "tags": {"building": "yes", "name": "Drigas San Javier La 115", "shop": "chemist"}}, {"type": "way", "id": 428270449, "nodes": [4273972408, 4273972401, 4273972405, 4273972411, 4273972408], "tags": {"name": "Tienda Naturista", "shop": "chemist"}}, {"type": "way", "id": 572200093, "nodes": [5497653687, 5497653686, 5497653683, 5497653684, 5497653685, 5497653687], "tags": {"addr:street": "Calle 63", "amenity": "pharmacy", "building": "yes", "name": "El Jordan", "source": "Kaart Ground Survey 2018"}}, {"type": "way", "id": 574246159, "nodes": [5512785341, 5512785338, 5512785339, 5512785340, 5512785341], "tags": {"addr:housenumber": "84 AA - 04", "addr:street": "Calle 35", "amenity": "pharmacy", "building": "yes", "check_date": "2025-09-04", "check_date:opening_hours": "2025-09-04", "email": "simonbolivar@pasteur.com.co", "healthcare": "pharmacy", "name": "Farmacia Pasteur Simon Bolivar", "opening_hours": "Mo-Fr 08:00-20:00; Sa 08:00-19:00; Su 09:00-18:00", "phone": "+57 604 2509910", "source": "Kaart Ground Survey 2018"}}, {"type": "way", "id": 576504558, "nodes": [5529490210, 5529490209, 5529490208, 5529490207, 9239187847, 5529490210], "tags": {"addr:street": "Calle 33", "amenity": "pharmacy", "building": "yes", "healthcare": "pharmacy", "name": "Droguer\u00eda Comercial", "source": "Kaart Ground Survey 2018"}}, {"type": "way", "id": 579440541, "nodes": [5549353467, 5549353466, 5549353465, 5549353464, 5549353467], "tags": {"addr:street": "Carrera 46", "amenity": "pharmacy", "building": "yes", "name": "Drogueria Natali", "source": "Kaart Ground Survey 2018"}}, {"type": "way", "id": 579440545, "nodes": [5549353482, 5549353481, 5549353480, 5549353479, 5549353482], "tags": {"addr:street": "Calle 109", "amenity": "pharmacy", "building": "yes", "healthcare": "pharmacy", "name": "Drogueria Misi\u00f3n Vida", "source": "Kaart Ground Survey 2018"}}, {"type": "way", "id": 580672220, "nodes": [5558092739, 5558092736, 5558092737, 5558092738, 5558092739], "tags": {"addr:street": "Carrera 52", "amenity": "pharmacy", "building": "yes", "name": "Drogueria", "source": "Kaart Ground Survey 2018"}}, {"type": "way", "id": 784950561, "nodes": [7333567855, 7333567856, 7333567857, 7333567858, 7333567855], "tags": {"amenity": "pharmacy", "building": "yes", "healthcare": "pharmacy", "name": "Droguer\u00eda Los Bernal"}}, {"type": "way", "id": 785084650, "nodes": [7334953503, 7334953504, 7334953505, 7334953506, 7334953503], "tags": {"amenity": "pharmacy", "building": "yes", "dispensing": "yes", "healthcare": "pharmacy"}}, {"type": "way", "id": 785216741, "nodes": [7337265445, 7337265446, 7337265447, 7337265448, 7337265449, 7337265450, 7337265451, 7337265452, 7337265453, 7337265454, 7337265455, 7337265456, 7337265445], "tags": {"amenity": "pharmacy", "building": "yes", "dispensing": "yes", "healthcare": "pharmacy"}}, {"type": "way", "id": 785478911, "nodes": [7341813320, 7341813321, 7341813322, 7341813323, 7341813320], "tags": {"addr:city": "Comuna 5 - Castilla", "addr:housenumber": "96-121", "addr:street": "Carrera 68", "amenity": "pharmacy", "building": "farm_auxiliary", "dispensing": "yes", "drive_through": "no", "healthcare": "pharmacy", "name": "Grogueria Santa Monica"}}, {"type": "way", "id": 785960589, "nodes": [7347180256, 7347180257, 7347180258, 7347180259, 7347180260, 7347180256], "tags": {"amenity": "pharmacy", "building": "yes", "dispensing": "yes", "healthcare": "pharmacy", "name": "Droguer\u00eda y Perfumer\u00eda San Bartolom\u00e9"}}, {"type": "way", "id": 786036331, "nodes": [7348395491, 7348395492, 7348395493, 7348395494, 7348395495, 7348395496, 7348395497, 7348395498, 7348395491], "tags": {"amenity": "pharmacy", "building": "yes", "dispensing": "yes", "healthcare": "pharmacy", "name": "Evedisa Medicamentos"}}, {"type": "way", "id": 786037038, "nodes": [7348400201, 7348400202, 7348400203, 7348400204, 7348400205, 7348400206, 7348400201], "tags": {"amenity": "pharmacy", "building": "yes", "check_date": "2025-09-06", "dispensing": "yes", "healthcare": "pharmacy", "name": "Droguer\u00eda Colsubsidio", "wheelchair": "yes"}}, {"type": "way", "id": 786072857, "nodes": [7348674045, 7348674046, 7348674047, 7348674048, 7348674045], "tags": {"building": "yes", "name": "Droguer\u00eda Espec\u00edfica", "shop": "chemist"}}, {"type": "way", "id": 1175782705, "nodes": [10925341792, 10925341793, 10925341794, 10925341795, 10925341796, 10925341797, 10925341798, 10925341799, 10925341800, 10925341801, 10925341802, 10925341803, 10925341804, 10925356605, 10925356606, 10925356607, 10925356609, 10925356608, 10925341792], "tags": {"amenity": "pharmacy", "brand": "Farmatodo", "brand:wikidata": "Q5856092", "building": "yes", "healthcare": "pharmacy", "name": "Farmatodo", "operator": "Farmatodo"}}, {"type": "way", "id": 1242091376, "nodes": [11541744288, 11541744289, 11541744290, 2378625355, 11541744288], "tags": {"amenity": "pharmacy", "building": "yes", "healthcare": "pharmacy"}}, {"type": "way", "id": 1276258584, "nodes": [11848606646, 11848606647, 11848606648, 11848606649, 11848606646], "tags": {"amenity": "pharmacy", "building": "yes", "healthcare": "pharmacy", "name": "Drogueria tricentenaria"}}, {"type": "way", "id": 1373586426, "nodes": [12717671481, 12717671482, 12717671483, 12717671484, 12717671481], "tags": {"building": "yes", "name": "Droguer\u00eda la Rebaja Plus", "shop": "chemist"}}, {"type": "way", "id": 1390779357, "nodes": [12873859296, 12873859297, 12873859298, 12873859299, 12873859296], "tags": {"addr:city": "Medell\u00edn", "addr:housenumber": "36 71", "addr:street": "Calle 1 Sur", "amenity": "pharmacy", "brand": "Farmatodo", "brand:wikidata": "Q5856092", "building": "yes", "healthcare": "pharmacy", "name": "Farmatodo"}}, {"type": "way", "id": 1414326782, "nodes": [12996422541, 12996422542, 12996422543, 12996420667, 12996422544, 12996422545, 12996422541], "tags": {"amenity": "pharmacy", "building": "yes", "healthcare": "pharmacy"}}]}